STRIX-1                 
1 53815U 22113A   26188.51900762  .00016258  00000+0  39913-3 0  9995
2 53815  97.4480 250.9165 0005115 152.1585 207.9936 15.40751709210573
STRIX-3                 
1 59224U 24047A   26188.52638738  .00005904  00000+0  27905-3 0  9999
2 59224  97.6632 164.5063 0012930   2.2799 357.8492 15.19725459127833
STRIX-4                 
1 60352U 24137A   26188.41949878  .00009839  00000+0  30795-3 0  9993
2 60352  43.0142 169.8487 0015837  76.6954 283.5665 15.33146672107120
STRIX-2                 
1 62406U 24248A   26188.49665341  .00004587  00000+0  29252-3 0  9997
2 62406  97.6291 144.0219 0013642 265.7523  94.2146 15.09136757 84654
STRIX-5                 
1 65971U 25229A   26188.35076409  .00002251  00000+0  16915-3 0  9991
2 65971  41.9263 175.5748 0036916 186.9788 173.0528 15.04555059 40014
STRIX-6                 
1 68291U 26056A   26188.24329748  .00001881  00000+0  16898-3 0  9991
2 68291  50.2819 254.9806 0016556 320.7165  39.2582 15.00304812 16284
STRIX-7                 
1 69177U 26112A   26188.53107068  .00002888  00000+0  23591-3 0  9995
2 69177  44.9071  85.5896 0023800 165.2729 194.8840 15.01570451  6934
STRIX-8                 
1 69701U 26146A   26188.51755888  .00003370  00000+0  25055-3 0  9996
2 69701  41.9898  55.6225 0008457 332.6670  27.3711 15.04390511  1629
