{"fetched_at":"2026-07-07T18:29:51.929Z","source":"https://celestrak.org/NORAD/elements/gp.php?NAME=STRIX&FORMAT=JSON","constellation":"synspective","records":[{"OBJECT_NAME":"STRIX-1","OBJECT_ID":"2022-113A","EPOCH":"2026-07-07T12:27:22.258368","CLASSIFICATION_TYPE":"U","MEAN_MOTION":15.40751709,"ECCENTRICITY":0.0005115,"INCLINATION":97.448,"RA_OF_ASC_NODE":250.9165,"ARG_OF_PERICENTER":152.1585,"MEAN_ANOMALY":207.9936,"EPHEMERIS_TYPE":0,"NORAD_CAT_ID":53815,"ELEMENT_SET_NO":999,"REV_AT_EPOCH":21057,"BSTAR":0.00039913,"MEAN_MOTION_DOT":0.00016258,"MEAN_MOTION_DDOT":0},{"OBJECT_NAME":"STRIX-3","OBJECT_ID":"2024-047A","EPOCH":"2026-07-07T12:37:59.869632","CLASSIFICATION_TYPE":"U","MEAN_MOTION":15.19725459,"ECCENTRICITY":0.001293,"INCLINATION":97.6632,"RA_OF_ASC_NODE":164.5063,"ARG_OF_PERICENTER":2.2799,"MEAN_ANOMALY":357.8492,"EPHEMERIS_TYPE":0,"NORAD_CAT_ID":59224,"ELEMENT_SET_NO":999,"REV_AT_EPOCH":12783,"BSTAR":0.00027905,"MEAN_MOTION_DOT":0.00005904,"MEAN_MOTION_DDOT":0},{"OBJECT_NAME":"STRIX-4","OBJECT_ID":"2024-137A","EPOCH":"2026-07-07T10:04:04.694592","CLASSIFICATION_TYPE":"U","MEAN_MOTION":15.33146672,"ECCENTRICITY":0.0015837,"INCLINATION":43.0142,"RA_OF_ASC_NODE":169.8487,"ARG_OF_PERICENTER":76.6954,"MEAN_ANOMALY":283.5665,"EPHEMERIS_TYPE":0,"NORAD_CAT_ID":60352,"ELEMENT_SET_NO":999,"REV_AT_EPOCH":10712,"BSTAR":0.00030795,"MEAN_MOTION_DOT":0.00009839,"MEAN_MOTION_DDOT":0},{"OBJECT_NAME":"STRIX-2","OBJECT_ID":"2024-248A","EPOCH":"2026-07-07T11:55:10.854624","CLASSIFICATION_TYPE":"U","MEAN_MOTION":15.09136757,"ECCENTRICITY":0.0013642,"INCLINATION":97.6291,"RA_OF_ASC_NODE":144.0219,"ARG_OF_PERICENTER":265.7523,"MEAN_ANOMALY":94.2146,"EPHEMERIS_TYPE":0,"NORAD_CAT_ID":62406,"ELEMENT_SET_NO":999,"REV_AT_EPOCH":8465,"BSTAR":0.00029252,"MEAN_MOTION_DOT":0.00004587,"MEAN_MOTION_DDOT":0},{"OBJECT_NAME":"STRIX-5","OBJECT_ID":"2025-229A","EPOCH":"2026-07-07T08:25:06.017376","CLASSIFICATION_TYPE":"U","MEAN_MOTION":15.04555059,"ECCENTRICITY":0.0036916,"INCLINATION":41.9263,"RA_OF_ASC_NODE":175.5748,"ARG_OF_PERICENTER":186.9788,"MEAN_ANOMALY":173.0528,"EPHEMERIS_TYPE":0,"NORAD_CAT_ID":65971,"ELEMENT_SET_NO":999,"REV_AT_EPOCH":4001,"BSTAR":0.00016915,"MEAN_MOTION_DOT":0.00002251,"MEAN_MOTION_DDOT":0},{"OBJECT_NAME":"STRIX-6","OBJECT_ID":"2026-056A","EPOCH":"2026-07-07T05:50:20.902272","CLASSIFICATION_TYPE":"U","MEAN_MOTION":15.00304812,"ECCENTRICITY":0.0016556,"INCLINATION":50.2819,"RA_OF_ASC_NODE":254.9806,"ARG_OF_PERICENTER":320.7165,"MEAN_ANOMALY":39.2582,"EPHEMERIS_TYPE":0,"NORAD_CAT_ID":68291,"ELEMENT_SET_NO":999,"REV_AT_EPOCH":1628,"BSTAR":0.00016898,"MEAN_MOTION_DOT":0.00001881,"MEAN_MOTION_DDOT":0},{"OBJECT_NAME":"STRIX-7","OBJECT_ID":"2026-112A","EPOCH":"2026-07-07T12:44:44.506752","CLASSIFICATION_TYPE":"U","MEAN_MOTION":15.01570451,"ECCENTRICITY":0.00238,"INCLINATION":44.9071,"RA_OF_ASC_NODE":85.5896,"ARG_OF_PERICENTER":165.2729,"MEAN_ANOMALY":194.884,"EPHEMERIS_TYPE":0,"NORAD_CAT_ID":69177,"ELEMENT_SET_NO":999,"REV_AT_EPOCH":693,"BSTAR":0.00023591,"MEAN_MOTION_DOT":0.00002888,"MEAN_MOTION_DDOT":0},{"OBJECT_NAME":"STRIX-8","OBJECT_ID":"2026-146A","EPOCH":"2026-07-07T12:25:17.087232","CLASSIFICATION_TYPE":"U","MEAN_MOTION":15.04390511,"ECCENTRICITY":0.0008457,"INCLINATION":41.9898,"RA_OF_ASC_NODE":55.6225,"ARG_OF_PERICENTER":332.667,"MEAN_ANOMALY":27.3711,"EPHEMERIS_TYPE":0,"NORAD_CAT_ID":69701,"ELEMENT_SET_NO":999,"REV_AT_EPOCH":162,"BSTAR":0.00025055,"MEAN_MOTION_DOT":0.0000337,"MEAN_MOTION_DDOT":0}]}
